TURKMENALEM52E/MONACOSAT
1 40617U 15023A   21185.50889819  .00000111  00000-0  00000-0 0  9997
2 40617   0.0114  61.4010 0002477  38.2446  58.2877  1.00270624 22705
DIRECTV 15              
1 40663U 15026A   21185.51952904 -.00000096  00000-0  00000-0 0  9991
2 40663   0.0196  80.3250 0000462 154.8898 131.7009  1.00272999 22329
SKY MEXICO-1            
1 40664U 15026B   21185.48281464 -.00000227  00000-0  00000-0 0  9990
2 40664   0.0115   5.5302 0001966 100.0391 272.1746  1.00271917 22337
METEOSAT-11 (MSG-4)     
1 40732U 15034A   21185.28310181  .00000000  00000-0  00000-0 0  9990
2 40732   0.1479 146.7826 0000580 288.7472 308.5606  1.00269167 21883
STAR ONE C4             
1 40733U 15034B   21185.48455936 -.00000258  00000-0  00000-0 0  9997
2 40733   0.0298  49.0804 0002445  39.4654 298.5941  1.00271177 21882
WGS F7 (USA 263)        
1 40746U 15036A   21185.59904840  .00000024  00000-0  00000-0 0  9998
2 40746   0.0067  24.0554 0000391 169.2433 120.1890  1.00270010 21743
INTELSAT 34 (IS-34)     
1 40874U 15039A   21185.19146814 -.00000279  00000-0  00000-0 0  9991
2 40874   0.0246 299.0097 0000544  54.3440 302.4922  1.00271011 21497
EUTELSAT 8 WEST B       
1 40875U 15039B   21185.42515567 -.00000059  00000-0  00000-0 0  9999
2 40875   0.0642 354.7222 0005708  94.1619 338.8241  1.00271042 21529
GSAT-6                  
1 40880U 15041A   21185.55465898 -.00000154  00000-0  00000-0 0  9999
2 40880   0.0411 280.3458 0003657 203.8121  80.8092  1.00271518 21494
INMARSAT 5-F3           
1 40882U 15042A   21185.17542799  .00000056  00000-0  00000-0 0  9996
2 40882   0.0191  35.3341 0000218 291.9622 197.8387  1.00270867 21430
MUOS-4                  
1 40887U 15044A   21185.51343446 -.00000087  00000-0  00000-0 0  9994
2 40887   2.6442 354.7666 0053127   3.1906 184.6450  1.00272741 21422
TJS-1                   
1 40892U 15046A   21185.54653150 -.00000149  00000-0  00000+0 0  9999
2 40892   0.0506 241.8970 0003408 170.4239 222.2325  1.00273274 21421
EXPRESS-AM8             
1 40895U 15048A   21184.84977127 -.00000107  00000-0  00000-0 0  9994
2 40895   0.0404 202.9777 0000516 249.4713 121.5273  1.00271015 21238
BEIDOU 20               
1 40938U 15053A   21185.23805632 -.00000156  00000-0  00000-0 0  9997
2 40938  52.0361 279.8708 0047890 192.5212 352.1738  1.00279947 21218
SKY MUSTER 1 (NBN1A)    
1 40940U 15054A   21185.04548243 -.00000273  00000-0  00000-0 0  9992
2 40940   0.0172 342.6894 0001642 118.9083 337.2937  1.00272591 21114
ARSAT 2                 
1 40941U 15054B   21185.48237847 -.00000218  00000-0  00000-0 0  9995
2 40941   0.0177  20.4983 0001705  79.3102 275.5419  1.00272426 21185
MORELOS 3               
1 40946U 15056A   21185.51075829 -.00000035  00000-0  00000-0 0  9993
2 40946   4.2246 330.8236 0002953 183.1639 199.5190  1.00271616 21155
APSTAR 9                
1 40982U 15059A   21185.59860435 -.00000259  00000-0  00000-0 0  9997
2 40982   0.0351 159.5968 0002209 304.8358 175.8765  1.00271537 21010
TURKSAT 4B              
1 40984U 15060A   21185.50846201  .00000122  00000-0  00000-0 0  9995
2 40984   0.0169  73.8532 0001910  30.8103  51.0622  1.00272123 20979
CHINASAT 2C (ZX 2C)     
1 41021U 15063A   21185.59092759 -.00000317  00000-0  00000-0 0  9998
2 41021   0.0406 205.6037 0002314 255.7821 137.5651  1.00270287 20875
GSAT-15                 
1 41028U 15065A   21185.15815528 -.00000252  00000-0  00000-0 0  9994
2 41028   0.0432 256.0091 0003641 192.6227 344.1704  1.00272869 20664
BADR-7 (ARABSAT-6B)     
1 41029U 15065B   21185.50366404  .00000152  00000-0  00000-0 0  9996
2 41029   0.0408 214.1753 0004062 351.2812 284.5630  1.00274145 20630
LAOSAT 1                
1 41034U 15067A   21185.52415020 -.00000336  00000-0  00000-0 0  9990
2 41034   0.0413 202.1538 0000946 250.9487 146.8307  1.00270100 20728
TELSTAR 12V             
1 41036U 15068A   21185.42375990 -.00000112  00000-0  00000+0 0  9994
2 41036   0.0177 357.6837 0001909  97.4281 325.0823  1.00272154 20591
CHINASAT 1C (ZX 1C)     
1 41103U 15073A   21185.58656580 -.00000145  00000-0  00000-0 0  9996
2 41103   2.5365  88.7739 0002496   8.2208 118.3504  1.00271872 20524
ELEKTRO-L 2             
1 41105U 15074A   21185.42384713 -.00000110  00000-0  00000-0 0  9990
2 41105   2.1241  92.2878 0002092  44.9717 283.4757  1.00271460 20373
COSMOS 2513             
1 41121U 15075A   21185.15562543 -.00000133  00000-0  00000-0 0  9993
2 41121   0.0695 109.8691 0002573   9.6730 299.0979  1.00273102 20381
EXPRESS-AMU1            
1 41191U 15082A   21185.50575771  .00000162  00000-0  00000-0 0  9995
2 41191   0.0164  75.0030 0002811  40.3503  25.5222  1.00273426 20141
GAOFEN 4                
1 41194U 15083A   21185.59136377 -.00000328  00000-0  00000-0 0  9998
2 41194   0.1002 266.6626 0002205 279.1295  55.6720  1.00273270 20359
BELINTERSAT-1           
1 41238U 16001A   21185.50881095  .00000113  00000-0  00000-0 0  9994
2 41238   0.0169 253.0556 0003009 253.6416  10.7011  1.00272832 20121
IRNSS-1E                
1 41241U 16003A   21184.65950053 -.00000311  00000-0  00000-0 0  9997
2 41241  29.2095  90.1053 0018039 180.7112   0.2962  1.00273374 19938
EUTELSAT 9B             
1 41310U 16005A   21185.28502101  .00000067  00000-0  00000-0 0  9990
2 41310   0.0556  72.8118 0001358 174.3766 146.9054  1.00270882 19978
SES-9                   
1 41380U 16013A   21185.19076882 -.00000339  00000-0  00000-0 0  9991
2 41380   0.0355 286.4290 0001920 167.0068   5.9520  1.00270336 19308
EUTELSAT 65 WEST A      
1 41382U 16014A   21185.48551896 -.00000269  00000-0  00000-0 0  9991
2 41382   0.0496  30.5558 0001854  77.7457 283.9880  1.00270849 19403
IRNSS-1F                
1 41384U 16015A   21185.50497257  .00000168  00000-0  00000-0 0  9994
2 41384   1.9485 186.2013 0019377 188.6746 122.1172  1.00265563 19528
BEIDOU IGSO-6           
1 41434U 16021A   21185.41906861 -.00000175  00000-0  00000-0 0  9992
2 41434  57.5840  56.4630 0037976 212.8573 260.1896  1.00265874 19343
IRNSS-1G                
1 41469U 16027A   21185.52432466 -.00000326  00000-0  00000-0 0  9991
2 41469   1.9268 189.8168 0006023 271.3658 139.7174  1.00277901 19049
JCSAT-2B                
1 41471U 16028A   21184.88326987 -.00000161  00000-0  00000+0 0  9999
2 41471   0.0193  28.0309 0001889  76.0141 290.0215  1.00270631 18940
THAICOM 8               
1 41552U 16031A   21185.55465898 -.00000114  00000-0  00000-0 0  9992
2 41552   0.0898  79.0960 0004024 359.9515 121.8941  1.00270971 18587
INTELSAT 31 (IS-31)     
1 41581U 16035A   21183.39807297 -.00000151  00000-0  00000-0 0  9992
2 41581   0.0099  14.0365 0001761 201.5379 113.3226  1.00276239 18445
BEIDOU-2 G7             
1 41586U 16037A   21185.52057353 -.00000349  00000-0  00000-0 0  9995
2 41586   1.7359  67.5422 0008945  19.0683 134.0940  1.00272382 18656
ABS-2A (MONGOLSAT-1)    
1 41588U 16038A   21185.15457860 -.00000078  00000-0  00000-0 0  9993
2 41588   0.0174  16.2438 0002088   3.8764  32.6438  1.00269188 18561
EUTELSAT 117 WEST B     
1 41589U 16038B   21185.39339233 -.00000005  00000-0  00000-0 0  9993
2 41589   0.0022 213.9693 0000235  24.9075  68.3673  1.00269727 18537
BRISAT                  
1 41591U 16039A   21185.18382831 -.00000191  00000-0  00000-0 0  9992
2 41591   0.0187  10.0930 0001971  92.8108  36.1972  1.00271026 18485
ECHOSTAR 18             
1 41592U 16039B   21185.48630407 -.00000275  00000-0  00000-0 0  9994
2 41592   0.0187  28.6672 0001380  80.6392 287.1042  1.00272119 18499
MUOS-5                  
1 41622U 16041A   21185.51651525 -.00000138  00000-0  00000-0 0  9997
2 41622   6.4098 303.8275 0201745 225.9889 193.8198  1.00273048 18951
TIANTONG-1 1            
1 41725U 16048A   21185.51874157 -.00000311  00000-0  00000-0 0  9999
2 41725   2.5229 344.2821 0003520 104.6588 121.9357  1.00274285 18137
JCSAT-16                
1 41729U 16050A   21185.56577172 -.00000350  00000-0  00000-0 0  9991
2 41729   0.0342  80.3971 0001382 161.8904   8.0932  1.00269773 17932
USA 270                 
1 41744U 16052A   21172.66880971 -.00000005  00000-0  00000+0 0  9997
2 41744   0.0754 106.0109 0009009 215.7122 256.0719  1.00272097   472
USA 271                 
1 41745U 16052B   21181.28058340 -.00000370  00000-0  00000+0 0  9998
2 41745   0.9983  96.4082 0000585 185.8769 211.2385  1.00429581   566
INTELSAT 36 (IS-36)     
1 41747U 16053A   21185.51221315 -.00000018  00000-0  00000-0 0  9995
2 41747   0.0099  11.7218 0002433   1.4252 162.4770  1.00271412 17833
INTELSAT 33E (IS-33E)   
1 41748U 16053B   21185.51046844  .00000055  00000-0  00000-0 0  9998
2 41748   0.0177   9.2873 0001282  99.5339  57.6741  1.00274107 18114
INSAT-3DR               
1 41752U 16054A   21185.51325999 -.00000071  00000-0  00000-0 0  9994
2 41752   0.1342  99.6360 0009555 168.4444 273.4101  1.00272085 17673
GSAT-18                 
1 41793U 16060A   21185.51325999 -.00000070  00000-0  00000-0 0  9995
2 41793   0.0146  73.0393 0003091 344.4743 123.9568  1.00270782 17407
SKY MUSTER 2 (NBN1B)    
1 41794U 16060B   21185.57103431 -.00000238  00000-0  00000-0 0  9993
2 41794   0.0168 340.0397 0001497 126.4660 166.6534  1.00270686 17384
HIMAWARI-9              
1 41836U 16064A   21185.59236270 -.00000268  00000-0  00000-0 0  9997
2 41836   0.0153  54.9325 0001146  70.3741 151.5131  1.00271221 17051
SHIJIAN-17 (SJ-17)      
1 41838U 16065A   21185.66552312 -.00000356  00000-0  00000+0 0  9993
2 41838   1.1651  92.9060 0004740  10.7990 176.2858  1.00270378 17099
GOES 16                 
1 41866U 16071A   21185.55529344 -.00000242  00000-0  00000+0 0  9992
2 41866   0.0977 102.2919 0001334  45.5798 259.6756  1.00272141 16974
TIANLIAN 1-04           
1 41869U 16072A   21185.60549600  .00000038  00000-0  00000-0 0  9992
2 41869   0.0550 107.7881 0025165 355.7438 214.1515  1.00268424 17167
